[{"OBJECT_NAME":"STARLINK-33643","OBJECT_ID":"2025-063U","EPOCH":"2026-03-09T23:20:24.038880","MEAN_MOTION":15.30229159,"ECCENTRICITY":0.00014337,"INCLINATION":53.1595,"RA_OF_ASC_NODE":51.0827,"ARG_OF_PERICENTER":96.2167,"MEAN_ANOMALY":263.8997,"EPHEMERIS_TYPE":0,"CLASSIFICATION_TYPE":"U","NORAD_CAT_ID":63381,"ELEMENT_SET_NO":999,"REV_AT_EPOCH":5480,"BSTAR":0.0015195335,"MEAN_MOTION_DOT":0.00044959,"MEAN_MOTION_DDOT":0},{"OBJECT_NAME":"CZ-6A DEB","OBJECT_ID":"2022-151EM","EPOCH":"2026-03-09T21:12:10.844640","MEAN_MOTION":15.1479521,"ECCENTRICITY":0.00732342,"INCLINATION":98.809,"RA_OF_ASC_NODE":212.6624,"ARG_OF_PERICENTER":10.5605,"MEAN_ANOMALY":349.714,"EPHEMERIS_TYPE":0,"CLASSIFICATION_TYPE":"U","NORAD_CAT_ID":54413,"ELEMENT_SET_NO":999,"REV_AT_EPOCH":17915,"BSTAR":0.0020661814,"MEAN_MOTION_DOT":0.00041137,"MEAN_MOTION_DDOT":0}]
